NORAD_CAT_ID,OBJECT_NAME,OBJECT_TYPE,EPOCH,MEAN_MOTION,ECCENTRICITY,INCLINATION,RA_OF_ASC_NODE,ARG_OF_PERICENTER,MEAN_ANOMALY,BSTAR,MEAN_MOTION_DOT,MEAN_MOTION_DDOT,TLE_LINE0,TLE_LINE1,TLE_LINE2,SEMIMAJOR_AXIS,PERIOD,APOGEE,PERIGEE,DECAYED
52463.0,STARLINK-3885,PAYLOAD,2023-06-17 08:27:52,15.08836229,0.0001136,53.2152,201.8505,80.0737,280.0383,5.9788e-05,6.64e-06,0.0,0 STARLINK-3885,1 52463U 22049N   23168.35269043  .00000664  00000-0  59788-4 0  9996,2 52463  53.2152 201.8505 0001136  80.0737 280.0383 15.08836229 62137,6917.892,95.438,540.543,538.971,0.0
52463.0,STARLINK-3885,PAYLOAD,2023-06-17 11:38:38,15.08837346,0.0001086,53.2152,201.2565,84.2969,275.8147,4.901e-05,4.92e-06,0.0,0 STARLINK-3885,1 52463U 22049N   23168.48517010  .00000492  00000-0  49010-4 0  9996,2 52463  53.2152 201.2565 0001086  84.2969 275.8147 15.08837346 61998,6917.889,95.438,540.505,539.002,0.0
52463.0,STARLINK-3885,PAYLOAD,2023-06-17 19:35:34,15.08836929,0.0001048,53.2148,199.7692,80.4862,279.6249,2.7493e-05,1.5e-06,0.0,0 STARLINK-3885,1 52463U 22049N   23168.81637127  .00000150  00000-0  27493-4 0  9997,2 52463  53.2148 199.7692 0001048  80.4862 279.6249 15.08836929 62041,6917.89,95.438,540.48,539.03,0.0
52463.0,STARLINK-3885,PAYLOAD,2023-06-18 01:57:07,15.088387,0.0001071,53.2146,198.58,79.3372,280.7741,-7.2871e-06,-4.04e-06,0.0,0 STARLINK-3885,1 52463U 22049N   23169.08133140 -.00000404  00000-0 -72871-5 0  9998,2 52463  53.2146 198.5800 0001071  79.3372 280.7741 15.08838700 62089,6917.884,95.438,540.49,539.008,0.0
52463.0,STARLINK-3885,PAYLOAD,2023-06-18 19:26:21,15.08839923,0.0001066,53.2152,195.3087,80.8283,279.283,2.132e-05,5.2e-07,0.0,0 STARLINK-3885,1 52463U 22049N   23169.80996942  .00000052  00000-0  21320-4 0  9994,2 52463  53.2152 195.3087 0001066  80.8283 279.2830 15.08839923 62350,6917.881,95.438,540.483,539.008,0.0
52463.0,STARLINK-3885,PAYLOAD,2023-06-19 08:09:26,15.08840545,0.0001051,53.2147,192.9301,75.4069,284.7039,9.6759e-05,1.252e-05,0.0,0 STARLINK-3885,1 52463U 22049N   23170.33988697  .00001252  00000-0  96759-4 0  9993,2 52463  53.2147 192.9301 0001051  75.4069 284.7039 15.08840545 62277,6917.879,95.438,540.471,539.017,0.0
52463.0,STARLINK-3885,PAYLOAD,2023-06-19 22:27:54,15.08837616,0.0001057,53.2147,190.254,74.5369,285.574,6.1224e-05,6.87e-06,0.0,0 STARLINK-3885,1 52463U 22049N   23170.93605013  .00000687  00000-0  61224-4 0  9997,2 52463  53.2147 190.2540 0001057  74.5369 285.5740 15.08837616 62523,6917.888,95.438,540.484,539.021,0.0
52463.0,STARLINK-3885,PAYLOAD,2023-06-20 11:10:59,15.08836728,0.0001055,53.2146,187.8748,73.8077,286.3031,3.5881e-05,2.83e-06,0.0,0 STARLINK-3885,1 52463U 22049N   23171.46597222  .00000283  00000-0  35881-4 0  9990,2 52463  53.2146 187.8748 0001055  73.8077 286.3031 15.08836728 62446,6917.89,95.438,540.485,539.026,0.0
52463.0,STARLINK-3885,PAYLOAD,2023-06-21 01:29:28,15.08840078,0.0001078,53.2146,185.1985,73.7639,286.3471,1.6063e-05,-3.2e-07,0.0,0 STARLINK-3885,1 52463U 22049N   23172.06213101 -.00000032  00000-0  16063-4 0  9992,2 52463  53.2146 185.1985 0001078  73.7639 286.3471 15.08840078 62696,6917.88,95.438,540.491,538.999,0.0
52463.0,STARLINK-3885,PAYLOAD,2023-06-21 07:51:00,15.08841967,0.0001086,53.2147,184.009,73.2761,286.835,2.4321e-05,9.9e-07,0.0,0 STARLINK-3885,1 52463U 22049N   23172.32708948  .00000099  00000-0  24321-4 0  9997,2 52463  53.2147 184.0090 0001086  73.2761 286.8350 15.08841967 62578,6917.874,95.437,540.491,538.988,0.0
52463.0,STARLINK-3885,PAYLOAD,2023-06-21 23:44:52,15.08834046,0.0001098,53.2147,181.0357,74.4784,285.6329,1.6749e-05,-2.1e-07,0.0,0 STARLINK-3885,1 52463U 22049N   23172.98949525 -.00000021  00000-0  16749-4 0  9998,2 52463  53.2147 181.0357 0001098  74.4784 285.6329 15.08834046 62834,6917.899,95.438,540.523,539.004,0.0
52463.0,STARLINK-3885,PAYLOAD,2023-06-23 09:07:58,15.08840241,0.0001114,53.2148,174.7907,75.4297,284.6819,5.239e-05,5.46e-06,0.0,0 STARLINK-3885,1 52463U 22049N   23174.38053319  .00000546  00000-0  52390-4 0  9994,2 52463  53.2148 174.7907 0001114  75.4297 284.6819 15.08840241 63045,6917.88,95.438,540.515,538.974,0.0
52463.0,STARLINK-3885,PAYLOAD,2023-06-24 16:55:41,15.08838842,0.0001153,53.2151,168.8435,82.3202,277.7921,6.0197e-05,6.7e-06,0.0,0 STARLINK-3885,1 52463U 22049N   23175.70533572  .00000670  00000-0  60197-4 0  9997,2 52463  53.2151 168.8435 0001153  82.3202 277.7921 15.08838842 63248,6917.884,95.438,540.547,538.951,0.0
52463.0,STARLINK-3885,PAYLOAD,2023-06-26 02:18:46,15.08839167,0.0001141,53.2149,162.5983,84.9683,275.1439,2.5923e-05,1.25e-06,0.0,0 STARLINK-3885,1 52463U 22049N   23177.09637597  .00000125  00000-0  25923-4 0  9996,2 52463  53.2149 162.5983 0001141  84.9683 275.1439 15.08839167 63452,6917.883,95.438,540.537,538.959,0.0
52463.0,STARLINK-3885,PAYLOAD,2023-06-27 08:31:06,15.088372,0.0001215,53.2153,156.9479,92.8585,267.2547,4.8657e-06,-2.1e-06,0.0,0 STARLINK-3885,1 52463U 22049N   23178.35493831 -.00000210  00000-0  48657-5 0  9993,2 52463  53.2153 156.9479 0001215  92.8585 267.2547 15.08837200 63644,6917.889,95.438,540.594,538.913,0.0
52463.0,STARLINK-3885,PAYLOAD,2023-06-29 05:01:54,15.08838932,0.0001165,53.2153,148.6228,89.9893,270.1233,7.4692e-05,9.01e-06,0.0,0 STARLINK-3885,1 52463U 22049N   23180.20965923  .00000901  00000-0  74692-4 0  9999,2 52463  53.2153 148.6228 0001165  89.9893 270.1233 15.08838932 63926,6917.884,95.438,540.555,538.943,0.0
52463.0,STARLINK-3885,PAYLOAD,2023-07-01 06:18:52,15.08835489,0.0001098,53.2157,139.4048,86.8715,273.2402,-2.4955e-05,-6.85e-06,0.0,0 STARLINK-3885,1 52463U 22049N   23182.26310918 -.00000685  00000-0 -24955-4 0  9993,2 52463  53.2157 139.4048 0001098  86.8715 273.2402 15.08835489 64233,6917.894,95.438,540.519,539.0,0.0
52463.0,STARLINK-3885,PAYLOAD,2023-07-02 02:58:52,15.08840758,0.0001095,53.216,135.5392,84.7957,275.316,7.802e-05,9.54e-06,0.0,0 STARLINK-3885,1 52463U 22049N   23183.12422360  .00000954  00000-0  78020-4 0  9993,2 52463  53.2160 135.5392 0001095  84.7957 275.3160 15.08840758 64361,6917.878,95.438,540.501,538.986,0.0
52463.0,STARLINK-3885,PAYLOAD,2023-07-03 13:57:22,15.08836579,0.0001123,53.216,128.9972,83.5716,276.5404,1.8929e-05,1.3e-07,0.0,0 STARLINK-3885,1 52463U 22049N   23184.58150841  .00000013  00000-0  18929-4 0  9994,2 52463  53.2160 128.9972 0001123  83.5716 276.5404 15.08836579 64587,6917.891,95.438,540.533,538.979,0.0
52463.0,STARLINK-3885,PAYLOAD,2023-07-05 00:55:50,15.08844653,0.0001252,53.2157,122.4537,89.9468,270.1668,5.4086e-05,5.73e-06,0.0,0 STARLINK-3885,1 52463U 22049N   23186.03878253  .00000573  00000-0  54086-4 0  9995,2 52463  53.2157 122.4537 0001252  89.9468 270.1668 15.08844653 64805,6917.866,95.437,540.597,538.865,0.0
52463.0,STARLINK-3885,PAYLOAD,2023-07-05 20:00:29,15.08831491,0.0001447,53.2157,118.884,100.4714,259.6441,1.9059e-05,1.5e-07,0.0,0 STARLINK-3885,1 52463U 22049N   23186.83367212  .00000015  00000-0  19059-4 0  9993,2 52463  53.2157 118.8840 0001447 100.4714 259.6441 15.08831491 64920,6917.906,95.438,540.772,538.77,0.0
52463.0,STARLINK-3885,PAYLOAD,2023-07-07 03:48:11,15.08844729,0.000129,53.2164,112.9389,90.3915,269.7225,2.7434e-05,1.49e-06,0.0,0 STARLINK-3885,1 52463U 22049N   23188.15846705  .00000149  00000-0  27434-4 0  9993,2 52463  53.2164 112.9389 0001290  90.3915 269.7225 15.08844729 65120,6917.866,95.437,540.623,538.839,0.0
52463.0,STARLINK-3885,PAYLOAD,2023-07-07 18:06:40,15.08832758,0.0001293,53.216,110.263,88.2796,271.8344,5.3972e-05,5.71e-06,0.0,0 STARLINK-3885,1 52463U 22049N   23188.75463460  .00000571  00000-0  53972-4 0  9997,2 52463  53.2160 110.2630 0001293  88.2796 271.8344 15.08832758 65217,6917.903,95.438,540.662,538.873,0.0
52463.0,STARLINK-3885,PAYLOAD,2023-07-08 05:14:21,15.08842712,0.0001316,53.2161,108.1808,91.4093,268.705,8.4229e-05,1.053e-05,0.0,0 STARLINK-3885,1 52463U 22049N   23189.21830837  .00001053  00000-0  84229-4 0  9990,2 52463  53.2161 108.1808 0001316  91.4093 268.7050 15.08842712 65280,6917.872,95.437,540.647,538.827,0.0
52463.0,STARLINK-3885,PAYLOAD,2023-07-08 11:35:54,15.08838242,0.0001402,53.2164,106.9909,87.5971,272.5182,3.3275e-05,2.42e-06,0.0,0 STARLINK-3885,1 52463U 22049N   23189.48327317  .00000242  00000-0  33275-4 0  9997,2 52463  53.2164 106.9909 0001402  87.5971 272.5182 15.08838242 65325,6917.886,95.438,540.721,538.781,0.0
52463.0,STARLINK-3885,PAYLOAD,2023-07-09 11:26:42,15.08832509,0.0001437,53.2167,102.5307,85.2748,274.8408,2.5703e-05,1.21e-06,0.0,0 STARLINK-3885,1 52463U 22049N   23190.47688042  .00000121  00000-0  25703-4 0  9996,2 52463  53.2167 102.5307 0001437  85.2748 274.8408 15.08832509 65479,6917.903,95.438,540.762,538.774,0.0
52463.0,STARLINK-3885,PAYLOAD,2023-07-10 03:20:33,15.08839957,0.0001259,53.2164,99.5575,90.8001,269.3135,4.0214e-05,3.52e-06,0.0,0 STARLINK-3885,1 52463U 22049N   23191.13927639  .00000352  00000-0  40214-4 0  9998,2 52463  53.2164  99.5575 0001259  90.8001 269.3135 15.08839957 65575,6917.881,95.438,540.616,538.875,0.0
52463.0,STARLINK-3885,PAYLOAD,2023-07-12 03:02:07,15.08845889,0.0001162,53.2164,90.6345,92.8915,267.221,5.8056e-05,6.36e-06,0.0,0 STARLINK-3885,1 52463U 22049N   23193.12647021  .00000636  00000-0  58056-4 0  9991,2 52463  53.2164  90.6345 0001162  92.8915 267.2210 15.08845889 65876,6917.862,95.437,540.531,538.924,0.0
52463.0,STARLINK-3885,PAYLOAD,2023-07-13 01:17:31,15.08842536,0.0001217,53.2173,86.4719,81.9893,278.1238,-1.7425e-05,-5.65e-06,0.0,0 STARLINK-3885,1 52463U 22049N   23194.05383529 -.00000565  00000-0 -17425-4 0  9992,2 52463  53.2173  86.4719 0001217  81.9893 278.1238 15.08842536 66013,6917.873,95.437,540.58,538.896,0.0
52463.0,STARLINK-3885,PAYLOAD,2023-07-13 23:32:55,15.08834733,0.0001085,53.2159,82.308,89.217,270.8946,-4.5187e-05,-1.007e-05,0.0,0 STARLINK-3885,1 52463U 22049N   23194.98120246 -.00001007  00000-0 -45187-4 0  9997,2 52463  53.2159  82.3080 0001085  89.2170 270.8946 15.08834733 66155,6917.896,95.438,540.512,539.011,0.0
